{
  "type": "FeatureCollection",
  "features": [
    {
      "type": "Feature",
      "properties": {
        "norad_id": 29945,
        "name": "FENGYUN 1C DEB",
        "group": "fengyun-1c-debris",
        "lat": -21.419895403122634,
        "lon": -171.19792972827042,
        "alt_km": 900.1112336633041,
        "timestamp": "2025-12-14T16:47:40.956164+00:00",
        "meta_object_name": "FENGYUN 1C DEB",
        "meta_object_id": "1999-025JT",
        "meta_epoch": "2025-12-13T23:02:41.021664",
        "meta_mean_motion": 14.05572118,
        "meta_eccentricity": 0.00308517,
        "meta_inclination": 98.7918,
        "meta_ra_of_asc_node": 11.5654,
        "meta_arg_of_pericenter": 358.9987,
        "meta_mean_anomaly": 62.4672,
        "meta_ephemeris_type": 0,
        "meta_classification_type": "U",
        "meta_norad_cat_id": 29945,
        "meta_element_set_no": 999,
        "meta_rev_at_epoch": 96995,
        "meta_bstar": 0.00011953628,
        "meta_mean_motion_dot": 1.52e-06,
        "meta_mean_motion_ddot": 0,
        "tle_line1": "1 29945U 99025JT  25347.96019701  .00000152  00000+0  11954-3 0  9998",
        "tle_line2": "2 29945  98.7918  11.5654 0030851 358.9987  62.4672 14.05572118969950"
      },
      "geometry": {
        "type": "Point",
        "coordinates": [
          -171.19792972827042,
          -21.419895403122634
        ]
      }
    },
    {
      "type": "Feature",
      "properties": {
        "norad_id": 29946,
        "name": "FENGYUN 1C DEB",
        "group": "fengyun-1c-debris",
        "lat": -60.12407116260061,
        "lon": 145.2804311077775,
        "alt_km": 878.7729635330452,
        "timestamp": "2025-12-14T16:47:40.956174+00:00",
        "meta_object_name": "FENGYUN 1C DEB",
        "meta_object_id": "1999-025JU",
        "meta_epoch": "2025-12-13T22:50:51.883296",
        "meta_mean_motion": 14.08255809,
        "meta_eccentricity": 0.00806151,
        "meta_inclination": 98.78,
        "meta_ra_of_asc_node": 340.1593,
        "meta_arg_of_pericenter": 340.0533,
        "meta_mean_anomaly": 73.154,
        "meta_ephemeris_type": 0,
        "meta_classification_type": "U",
        "meta_norad_cat_id": 29946,
        "meta_element_set_no": 999,
        "meta_rev_at_epoch": 97064,
        "meta_bstar": 0.0003154249,
        "meta_mean_motion_dot": 5.12e-06,
        "meta_mean_motion_ddot": 0,
        "tle_line1": "1 29946U 99025JU  25347.95198939  .00000512  00000+0  31542-3 0  9994",
        "tle_line2": "2 29946  98.7800 340.1593 0080615 340.0533  73.1540 14.08255809970645"
      },
      "geometry": {
        "type": "Point",
        "coordinates": [
          145.2804311077775,
          -60.12407116260061
        ]
      }
    },
    {
      "type": "Feature",
      "properties": {
        "norad_id": 29947,
        "name": "FENGYUN 1C DEB",
        "group": "fengyun-1c-debris",
        "lat": -6.0416780720128065,
        "lon": -161.74778608713672,
        "alt_km": 876.8170887941133,
        "timestamp": "2025-12-14T16:47:40.956184+00:00",
        "meta_object_name": "FENGYUN 1C DEB",
        "meta_object_id": "1999-025JV",
        "meta_epoch": "2025-12-13T20:13:13.711584",
        "meta_mean_motion": 14.03069865,
        "meta_eccentricity": 0.00408931,
        "meta_inclination": 98.8367,
        "meta_ra_of_asc_node": 18.3634,
        "meta_arg_of_pericenter": 117.851,
        "meta_mean_anomaly": 60.0317,
        "meta_ephemeris_type": 0,
        "meta_classification_type": "U",
        "meta_norad_cat_id": 29947,
        "meta_element_set_no": 999,
        "meta_rev_at_epoch": 96765,
        "meta_bstar": 0.00050938405,
        "meta_mean_motion_dot": 7.55e-06,
        "meta_mean_motion_ddot": 0,
        "tle_line1": "1 29947U 99025JV  25347.84251981  .00000755  00000+0  50938-3 0  9999",
        "tle_line2": "2 29947  98.8367  18.3634 0040893 117.8510  60.0317 14.03069865967658"
      },
      "geometry": {
        "type": "Point",
        "coordinates": [
          -161.74778608713672,
          -6.0416780720128065
        ]
      }
    },
    {
      "type": "Feature",
      "properties": {
        "norad_id": 29948,
        "name": "FENGYUN 1C DEB",
        "group": "fengyun-1c-debris",
        "lat": 71.33849787225805,
        "lon": -52.55633638307698,
        "alt_km": 920.2715657174167,
        "timestamp": "2025-12-14T16:47:40.956252+00:00",
        "meta_object_name": "FENGYUN 1C DEB",
        "meta_object_id": "1999-025JW",
        "meta_epoch": "2025-12-13T21:58:29.859168",
        "meta_mean_motion": 14.06192512,
        "meta_eccentricity": 0.00837799,
        "meta_inclination": 98.8242,
        "meta_ra_of_asc_node": 334.063,
        "meta_arg_of_pericenter": 230.2656,
        "meta_mean_anomaly": 196.2438,
        "meta_ephemeris_type": 0,
        "meta_classification_type": "U",
        "meta_norad_cat_id": 29948,
        "meta_element_set_no": 999,
        "meta_rev_at_epoch": 96993,
        "meta_bstar": 0.00029026449,
        "meta_mean_motion_dot": 4.49e-06,
        "meta_mean_motion_ddot": 0,
        "tle_line1": "1 29948U 99025JW  25347.91562337  .00000449  00000+0  29026-3 0  9992",
        "tle_line2": "2 29948  98.8242 334.0630 0083779 230.2656 196.2438 14.06192512969934"
      },
      "geometry": {
        "type": "Point",
        "coordinates": [
          -52.55633638307698,
          71.33849787225805
        ]
      }
    },
    {
      "type": "Feature",
      "properties": {
        "norad_id": 29949,
        "name": "FENGYUN 1C DEB",
        "group": "fengyun-1c-debris",
        "lat": 31.285426501147928,
        "lon": -1.0546788833695095,
        "alt_km": 868.9740527268941,
        "timestamp": "2025-12-14T16:47:40.956266+00:00",
        "meta_object_name": "FENGYUN 1C DEB",
        "meta_object_id": "1999-025JX",
        "meta_epoch": "2025-12-13T23:52:11.771616",
        "meta_mean_motion": 14.06826512,
        "meta_eccentricity": 0.00231993,
        "meta_inclination": 98.7623,
        "meta_ra_of_asc_node": 3.6399,
        "meta_arg_of_pericenter": 301.8314,
        "meta_mean_anomaly": 120.1461,
        "meta_ephemeris_type": 0,
        "meta_classification_type": "U",
        "meta_norad_cat_id": 29949,
        "meta_element_set_no": 999,
        "meta_rev_at_epoch": 97125,
        "meta_bstar": 0.0001653308,
        "meta_mean_motion_dot": 2.33e-06,
        "meta_mean_motion_ddot": 0,
        "tle_line1": "1 29949U 99025JX  25347.99458069  .00000233  00000+0  16533-3 0  9997",
        "tle_line2": "2 29949  98.7623   3.6399 0023199 301.8314 120.1461 14.06826512971258"
      },
      "geometry": {
        "type": "Point",
        "coordinates": [
          -1.0546788833695095,
          31.285426501147928
        ]
      }
    },
    {
      "type": "Feature",
      "properties": {
        "norad_id": 29950,
        "name": "FENGYUN 1C DEB",
        "group": "fengyun-1c-debris",
        "lat": -70.02419594275464,
        "lon": 174.68166228522625,
        "alt_km": 842.9117381195229,
        "timestamp": "2025-12-14T16:47:40.956276+00:00",
        "meta_object_name": "FENGYUN 1C DEB",
        "meta_object_id": "1999-025JY",
        "meta_epoch": "2025-12-13T23:07:54.058368",
        "meta_mean_motion": 14.10334767,
        "meta_eccentricity": 0.00323428,
        "meta_inclination": 98.7411,
        "meta_ra_of_asc_node": 19.0071,
        "meta_arg_of_pericenter": 238.5267,
        "meta_mean_anomaly": 238.7715,
        "meta_ephemeris_type": 0,
        "meta_classification_type": "U",
        "meta_norad_cat_id": 29950,
        "meta_element_set_no": 999,
        "meta_rev_at_epoch": 97308,
        "meta_bstar": 0.00018906017,
        "meta_mean_motion_dot": 2.94e-06,
        "meta_mean_motion_ddot": 0,
        "tle_line1": "1 29950U 99025JY  25347.96382012  .00000294  00000+0  18906-3 0  9993",
        "tle_line2": "2 29950  98.7411  19.0071 0032342 238.5267 238.7715 14.10334767973088"
      },
      "geometry": {
        "type": "Point",
        "coordinates": [
          174.68166228522625,
          -70.02419594275464
        ]
      }
    },
    {
      "type": "Feature",
      "properties": {
        "norad_id": 29953,
        "name": "FENGYUN 1C DEB",
        "group": "fengyun-1c-debris",
        "lat": -41.730291971027434,
        "lon": 147.47462630571903,
        "alt_km": 871.9306761741054,
        "timestamp": "2025-12-14T16:47:40.956287+00:00",
        "meta_object_name": "FENGYUN 1C DEB",
        "meta_object_id": "1999-025KB",
        "meta_epoch": "2025-12-13T22:43:25.311936",
        "meta_mean_motion": 13.90848309,
        "meta_eccentricity": 0.01055791,
        "meta_inclination": 98.9375,
        "meta_ra_of_asc_node": 334.8186,
        "meta_arg_of_pericenter": 263.3437,
        "meta_mean_anomaly": 151.6297,
        "meta_ephemeris_type": 0,
        "meta_classification_type": "U",
        "meta_norad_cat_id": 29953,
        "meta_element_set_no": 999,
        "meta_rev_at_epoch": 95879,
        "meta_bstar": 0.00051367121,
        "meta_mean_motion_dot": 6.29e-06,
        "meta_mean_motion_ddot": 0,
        "tle_line1": "1 29953U 99025KB  25347.94682074  .00000629  00000+0  51367-3 0  9995",
        "tle_line2": "2 29953  98.9375 334.8186 0105579 263.3437 151.6297 13.90848309958793"
      },
      "geometry": {
        "type": "Point",
        "coordinates": [
          147.47462630571903,
          -41.730291971027434
        ]
      }
    }
  ]
}